QIANFAN-57              
1 62787U 25016C   25324.82803790  .00000118  00000+0  16470-3 0  9997
2 62787  88.9768 105.4584 0001466 128.8917 231.2365 13.50980875 44240
QIANFAN-58              
1 62788U 25016D   25324.87327665  .00000107  00000+0  14741-3 0  9992
2 62788  88.9737 105.2922 0014916  51.6199 308.6290 13.50980630 44290
QIANFAN-59              
1 62789U 25016E   25324.82390290  .00000102  00000+0  13843-3 0  9999
2 62789  88.9761 105.3657 0015388  55.1538 305.1058 13.50980026 44286
QIANFAN-60              
1 62790U 25016F   25324.85701627  .00000039  00000+0  41953-4 0  9997
2 62790  88.9743 105.3380 0016829  51.4623 308.8034 13.50976911 44277
QIANFAN-61              
1 62791U 25016G   25324.81568329  .00000092  00000+0  12330-3 0  9999
2 62791  88.9809 105.4902 0015768  51.1434 309.1121 13.50973959 44281
QIANFAN-62              
1 62792U 25016H   25324.81986100  .00000092  00000+0  12427-3 0  9998
2 62792  88.9756 105.3700 0017153  51.1196 309.1482 13.50983878 44273
QIANFAN-63              
1 62793U 25016J   25324.84456416  .00000084  00000+0  11066-3 0  9993
2 62793  88.9763 105.3176 0017312  55.9961 304.2832 13.50976988 44312
QIANFAN-64              
1 62794U 25016K   25324.88564715  .00000106  00000+0  14462-3 0  9998
2 62794  88.9749 105.2903 0015112  49.9393 310.3081 13.50978919 44312
